,frame,x,y,r,namefr,sample_rate
0,1,892,504,178,framenr_1_framevid_example8,50.0
1,2,896,490,163,framenr_2_framevid_example8,50.0
2,3,890,496,170,framenr_3_framevid_example8,50.0
3,4,894,492,165,framenr_4_framevid_example8,50.0
4,5,898,510,182,framenr_5_framevid_example8,50.0
5,6,796,592,90,framenr_6_framevid_example8,50.0
6,7,892,504,177,framenr_7_framevid_example8,50.0
7,8,782,596,81,framenr_8_framevid_example8,50.0
8,9,780,598,86,framenr_9_framevid_example8,50.0
9,10,1310,402,186,framenr_10_framevid_example8,50.0
10,11,758,602,69,framenr_11_framevid_example8,50.0
11,12,760,598,77,framenr_12_framevid_example8,50.0
12,13,758,602,77,framenr_13_framevid_example8,50.0
13,14,756,604,77,framenr_14_framevid_example8,50.0
14,15,758,604,83,framenr_15_framevid_example8,50.0
15,16,748,604,77,framenr_16_framevid_example8,50.0
16,17,746,608,77,framenr_17_framevid_example8,50.0
17,18,1098,828,144,framenr_18_framevid_example8,50.0
18,19,746,602,84,framenr_19_framevid_example8,50.0
19,20,848,524,183,framenr_20_framevid_example8,50.0
20,21,744,604,86,framenr_21_framevid_example8,50.0
21,22,764,592,110,framenr_22_framevid_example8,50.0
22,23,852,518,175,framenr_23_framevid_example8,50.0
23,24,730,600,75,framenr_24_framevid_example8,50.0
24,25,732,602,76,framenr_25_framevid_example8,50.0
25,26,850,518,179,framenr_26_framevid_example8,50.0
26,27,852,510,172,framenr_27_framevid_example8,50.0
27,28,732,598,76,framenr_28_framevid_example8,50.0
28,29,730,596,76,framenr_29_framevid_example8,50.0
29,30,852,490,154,framenr_30_framevid_example8,50.0
30,31,1306,504,160,framenr_31_framevid_example8,50.0
31,32,698,564,222,framenr_32_framevid_example8,50.0
32,33,856,464,130,framenr_33_framevid_example8,50.0
33,34,722,590,74,framenr_34_framevid_example8,50.0
34,35,712,572,91,framenr_35_framevid_example8,50.0
35,36,718,566,81,framenr_36_framevid_example8,50.0
36,37,712,574,90,framenr_37_framevid_example8,50.0
37,38,708,574,92,framenr_38_framevid_example8,50.0
38,39,704,574,93,framenr_39_framevid_example8,50.0
39,40,718,600,84,framenr_40_framevid_example8,50.0
40,41,676,594,119,framenr_41_framevid_example8,50.0
41,42,714,596,87,framenr_42_framevid_example8,50.0
42,43,702,598,77,framenr_43_framevid_example8,50.0
43,44,700,598,76,framenr_44_framevid_example8,50.0
44,45,818,522,177,framenr_45_framevid_example8,50.0
45,46,710,600,89,framenr_46_framevid_example8,50.0
46,47,1274,450,175,framenr_47_framevid_example8,50.0
47,48,700,586,72,framenr_48_framevid_example8,50.0
48,49,706,600,84,framenr_49_framevid_example8,50.0
49,50,706,600,84,framenr_50_framevid_example8,50.0
50,51,694,596,75,framenr_51_framevid_example8,50.0
51,52,694,598,77,framenr_52_framevid_example8,50.0
52,53,692,596,75,framenr_53_framevid_example8,50.0
53,54,700,600,84,framenr_54_framevid_example8,50.0
54,55,692,596,77,framenr_55_framevid_example8,50.0
55,56,698,596,87,framenr_56_framevid_example8,50.0
56,57,700,590,84,framenr_57_framevid_example8,50.0
57,58,702,580,85,framenr_58_framevid_example8,50.0
58,59,704,580,88,framenr_59_framevid_example8,50.0
59,60,696,572,78,framenr_60_framevid_example8,50.0
60,61,706,572,88,framenr_61_framevid_example8,50.0
61,62,708,570,90,framenr_62_framevid_example8,50.0
62,63,710,566,91,framenr_63_framevid_example8,50.0
63,64,708,570,89,framenr_64_framevid_example8,50.0
64,65,700,564,80,framenr_65_framevid_example8,50.0
65,66,712,560,90,framenr_66_framevid_example8,50.0
66,67,712,560,90,framenr_67_framevid_example8,50.0
67,68,712,560,89,framenr_68_framevid_example8,50.0
68,69,718,558,92,framenr_69_framevid_example8,50.0
69,70,706,556,80,framenr_70_framevid_example8,50.0
70,71,744,552,115,framenr_71_framevid_example8,50.0
71,72,718,560,88,framenr_72_framevid_example8,50.0
72,73,728,554,94,framenr_73_framevid_example8,50.0
73,74,748,546,174,framenr_74_framevid_example8,50.0
74,75,718,556,80,framenr_75_framevid_example8,50.0
75,76,720,556,81,framenr_76_framevid_example8,50.0
76,77,692,540,202,framenr_77_framevid_example8,50.0
77,78,730,558,89,framenr_78_framevid_example8,50.0
78,79,692,544,208,framenr_79_framevid_example8,50.0
79,80,742,558,97,framenr_80_framevid_example8,50.0
80,81,744,558,96,framenr_81_framevid_example8,50.0
81,82,740,558,90,framenr_82_framevid_example8,50.0
82,83,742,554,91,framenr_83_framevid_example8,50.0
83,84,738,550,86,framenr_84_framevid_example8,50.0
84,85,1268,412,180,framenr_85_framevid_example8,50.0
85,86,786,512,164,framenr_86_framevid_example8,50.0
86,87,1364,370,181,framenr_87_framevid_example8,50.0
87,88,778,488,85,framenr_88_framevid_example8,50.0
88,89,958,786,140,framenr_89_framevid_example8,50.0
89,90,754,546,90,framenr_90_framevid_example8,50.0
90,91,772,478,68,framenr_91_framevid_example8,50.0
91,92,828,444,114,framenr_92_framevid_example8,50.0
92,93,734,542,70,framenr_93_framevid_example8,50.0
93,94,782,488,81,framenr_94_framevid_example8,50.0
94,95,750,544,84,framenr_95_framevid_example8,50.0
95,96,812,512,190,framenr_96_framevid_example8,50.0
96,97,750,522,209,framenr_97_framevid_example8,50.0
97,98,786,496,170,framenr_98_framevid_example8,50.0
98,99,796,498,131,framenr_99_framevid_example8,50.0
99,100,826,500,175,framenr_100_framevid_example8,50.0
100,101,836,494,167,framenr_101_framevid_example8,50.0
101,102,820,548,222,framenr_102_framevid_example8,50.0
102,103,1242,472,208,framenr_103_framevid_example8,50.0
103,104,1244,474,212,framenr_104_framevid_example8,50.0
104,105,796,578,127,framenr_105_framevid_example8,50.0
105,106,848,524,197,framenr_106_framevid_example8,50.0
106,107,840,562,235,framenr_107_framevid_example8,50.0
107,108,886,474,102,framenr_108_framevid_example8,50.0
108,109,898,472,96,framenr_109_framevid_example8,50.0
109,110,1264,402,163,framenr_110_framevid_example8,50.0
110,111,1208,772,142,framenr_111_framevid_example8,50.0
111,112,1218,436,165,framenr_112_framevid_example8,50.0
112,113,1216,484,222,framenr_113_framevid_example8,50.0
113,114,1214,458,180,framenr_114_framevid_example8,50.0
114,115,1254,460,208,framenr_115_framevid_example8,50.0
115,116,1256,454,167,framenr_116_framevid_example8,50.0
116,117,1460,354,120,framenr_117_framevid_example8,50.0
117,118,984,594,80,framenr_118_framevid_example8,50.0
118,119,1228,484,210,framenr_119_framevid_example8,50.0
119,120,1172,526,174,framenr_120_framevid_example8,50.0
120,121,1252,456,168,framenr_121_framevid_example8,50.0
121,122,1228,438,168,framenr_122_framevid_example8,50.0
122,123,1100,624,146,framenr_123_framevid_example8,50.0
123,124,1198,472,142,framenr_124_framevid_example8,50.0
124,125,1104,624,142,framenr_125_framevid_example8,50.0
125,126,1108,634,146,framenr_126_framevid_example8,50.0
126,127,1236,538,161,framenr_127_framevid_example8,50.0
127,128,1162,492,127,framenr_128_framevid_example8,50.0
128,129,1100,622,155,framenr_129_framevid_example8,50.0
129,130,1190,474,180,framenr_130_framevid_example8,50.0
130,131,1072,642,153,framenr_131_framevid_example8,50.0
131,132,1226,428,163,framenr_132_framevid_example8,50.0
132,133,1100,628,96,framenr_133_framevid_example8,50.0
133,134,1204,500,208,framenr_134_framevid_example8,50.0
134,135,1200,502,206,framenr_135_framevid_example8,50.0
135,136,1160,556,80,framenr_136_framevid_example8,50.0
136,137,1152,446,133,framenr_137_framevid_example8,50.0
137,138,1182,492,188,framenr_138_framevid_example8,50.0
138,139,990,668,48,framenr_139_framevid_example8,50.0
139,140,502,508,157,framenr_140_framevid_example8,50.0
140,141,1166,498,181,framenr_141_framevid_example8,50.0
141,142,1170,500,184,framenr_142_framevid_example8,50.0
142,143,1078,646,167,framenr_143_framevid_example8,50.0
143,144,1050,670,164,framenr_144_framevid_example8,50.0
144,145,1178,512,201,framenr_145_framevid_example8,50.0
145,146,1168,514,196,framenr_146_framevid_example8,50.0
146,147,1156,476,160,framenr_147_framevid_example8,50.0
147,148,1066,662,134,framenr_148_framevid_example8,50.0
148,149,1040,704,255,framenr_149_framevid_example8,50.0
149,150,1166,518,157,framenr_150_framevid_example8,50.0
150,151,1176,504,151,framenr_151_framevid_example8,50.0
151,152,1164,512,194,framenr_152_framevid_example8,50.0
152,153,1164,514,199,framenr_153_framevid_example8,50.0
153,154,1030,686,150,framenr_154_framevid_example8,50.0
154,155,1054,662,134,framenr_155_framevid_example8,50.0
155,156,1194,464,178,framenr_156_framevid_example8,50.0
156,157,1272,442,157,framenr_157_framevid_example8,50.0
157,158,1168,514,205,framenr_158_framevid_example8,50.0
158,159,1056,662,109,framenr_159_framevid_example8,50.0
159,160,1188,468,180,framenr_160_framevid_example8,50.0
160,161,1048,664,114,framenr_161_framevid_example8,50.0
161,162,1154,522,206,framenr_162_framevid_example8,50.0
162,163,1048,648,102,framenr_163_framevid_example8,50.0
163,164,1184,466,178,framenr_164_framevid_example8,50.0
164,165,1062,656,150,framenr_165_framevid_example8,50.0
165,166,1244,454,153,framenr_166_framevid_example8,50.0
166,167,994,636,82,framenr_167_framevid_example8,50.0
167,168,1174,442,157,framenr_168_framevid_example8,50.0
168,169,1124,468,150,framenr_169_framevid_example8,50.0
169,170,1230,496,119,framenr_170_framevid_example8,50.0
170,171,948,628,52,framenr_171_framevid_example8,50.0
171,172,952,600,123,framenr_172_framevid_example8,50.0
172,173,1148,514,208,framenr_173_framevid_example8,50.0
173,174,938,694,117,framenr_174_framevid_example8,50.0
174,175,1142,510,160,framenr_175_framevid_example8,50.0
175,176,1240,436,154,framenr_176_framevid_example8,50.0
176,177,1136,514,210,framenr_177_framevid_example8,50.0
177,178,1132,510,206,framenr_178_framevid_example8,50.0
178,179,1110,488,175,framenr_179_framevid_example8,50.0
179,180,1136,512,211,framenr_180_framevid_example8,50.0
180,181,1114,508,122,framenr_181_framevid_example8,50.0
181,182,964,838,137,framenr_182_framevid_example8,50.0
182,183,1002,880,78,framenr_183_framevid_example8,50.0
183,184,1122,516,210,framenr_184_framevid_example8,50.0
184,185,960,844,131,framenr_185_framevid_example8,50.0
185,186,968,848,120,framenr_186_framevid_example8,50.0
186,187,842,624,61,framenr_187_framevid_example8,50.0
187,188,1104,460,167,framenr_188_framevid_example8,50.0
188,189,1398,324,157,framenr_189_framevid_example8,50.0
189,190,1098,506,232,framenr_190_framevid_example8,50.0
190,191,1406,326,151,framenr_191_framevid_example8,50.0
191,192,1046,556,165,framenr_192_framevid_example8,50.0
192,193,1124,482,183,framenr_193_framevid_example8,50.0
193,194,1104,470,160,framenr_194_framevid_example8,50.0
194,195,1078,500,127,framenr_195_framevid_example8,50.0
195,196,1116,518,208,framenr_196_framevid_example8,50.0
196,197,1122,522,167,framenr_197_framevid_example8,50.0
197,198,800,594,204,framenr_198_framevid_example8,50.0
198,199,768,598,154,framenr_199_framevid_example8,50.0
199,200,798,558,243,framenr_200_framevid_example8,50.0
200,201,770,626,188,framenr_201_framevid_example8,50.0
201,202,774,628,195,framenr_202_framevid_example8,50.0
202,203,762,630,174,framenr_203_framevid_example8,50.0
203,204,750,646,171,framenr_204_framevid_example8,50.0
204,205,774,636,198,framenr_205_framevid_example8,50.0
205,206,760,634,179,framenr_206_framevid_example8,50.0
206,207,770,646,178,framenr_207_framevid_example8,50.0
207,208,768,656,171,framenr_208_framevid_example8,50.0
208,209,770,662,168,framenr_209_framevid_example8,50.0
209,210,784,662,190,framenr_210_framevid_example8,50.0
210,211,780,664,169,framenr_211_framevid_example8,50.0
211,212,784,668,185,framenr_212_framevid_example8,50.0
212,213,784,668,170,framenr_213_framevid_example8,50.0
213,214,784,668,168,framenr_214_framevid_example8,50.0
214,215,780,668,164,framenr_215_framevid_example8,50.0
215,216,794,666,185,framenr_216_framevid_example8,50.0
216,217,804,664,191,framenr_217_framevid_example8,50.0
217,218,802,662,184,framenr_218_framevid_example8,50.0
218,219,800,666,179,framenr_219_framevid_example8,50.0
219,220,800,654,170,framenr_220_framevid_example8,50.0
220,221,812,662,171,framenr_221_framevid_example8,50.0
221,222,816,660,170,framenr_222_framevid_example8,50.0
222,223,834,642,190,framenr_223_framevid_example8,50.0
223,224,846,632,201,framenr_224_framevid_example8,50.0
224,225,832,648,180,framenr_225_framevid_example8,50.0
225,226,822,656,164,framenr_226_framevid_example8,50.0
226,227,820,656,161,framenr_227_framevid_example8,50.0
227,228,824,654,164,framenr_228_framevid_example8,50.0
228,229,824,656,162,framenr_229_framevid_example8,50.0
229,230,864,624,212,framenr_230_framevid_example8,50.0
230,231,824,656,160,framenr_231_framevid_example8,50.0
231,232,816,668,158,framenr_232_framevid_example8,50.0
232,233,828,652,162,framenr_233_framevid_example8,50.0
233,234,834,644,171,framenr_234_framevid_example8,50.0
234,235,826,654,157,framenr_235_framevid_example8,50.0
235,236,858,630,194,framenr_236_framevid_example8,50.0
236,237,846,638,181,framenr_237_framevid_example8,50.0
237,238,854,628,190,framenr_238_framevid_example8,50.0
238,239,864,620,201,framenr_239_framevid_example8,50.0
239,240,794,650,173,framenr_240_framevid_example8,50.0
240,241,782,630,172,framenr_241_framevid_example8,50.0
241,242,860,616,197,framenr_242_framevid_example8,50.0
242,243,1162,442,165,framenr_243_framevid_example8,50.0
243,244,1478,324,133,framenr_244_framevid_example8,50.0
244,245,848,634,175,framenr_245_framevid_example8,50.0
245,246,846,636,172,framenr_246_framevid_example8,50.0
246,247,860,610,116,framenr_247_framevid_example8,50.0
247,248,1310,408,189,framenr_248_framevid_example8,50.0
248,249,860,580,212,framenr_249_framevid_example8,50.0
249,250,470,494,51,framenr_250_framevid_example8,50.0
250,251,842,640,162,framenr_251_framevid_example8,50.0
251,252,1166,500,222,framenr_252_framevid_example8,50.0
252,253,852,632,172,framenr_253_framevid_example8,50.0
253,254,864,620,203,framenr_254_framevid_example8,50.0
254,255,1170,472,175,framenr_255_framevid_example8,50.0
255,256,1186,500,206,framenr_256_framevid_example8,50.0
256,257,866,638,193,framenr_257_framevid_example8,50.0
257,258,1010,866,144,framenr_258_framevid_example8,50.0
258,259,1188,498,206,framenr_259_framevid_example8,50.0
259,260,1190,500,208,framenr_260_framevid_example8,50.0
260,261,1158,792,142,framenr_261_framevid_example8,50.0
261,262,1208,458,181,framenr_262_framevid_example8,50.0
262,263,1170,450,117,framenr_263_framevid_example8,50.0
263,264,860,600,106,framenr_264_framevid_example8,50.0
264,265,872,628,194,framenr_265_framevid_example8,50.0
265,266,862,632,183,framenr_266_framevid_example8,50.0
266,267,850,640,174,framenr_267_framevid_example8,50.0
267,268,840,648,165,framenr_268_framevid_example8,50.0
268,269,830,658,171,framenr_269_framevid_example8,50.0
269,270,854,636,197,framenr_270_framevid_example8,50.0
270,271,824,654,173,framenr_271_framevid_example8,50.0
271,272,834,632,208,framenr_272_framevid_example8,50.0
272,273,818,642,202,framenr_273_framevid_example8,50.0
273,274,772,684,169,framenr_274_framevid_example8,50.0
274,275,750,704,153,framenr_275_framevid_example8,50.0
275,276,750,700,167,framenr_276_framevid_example8,50.0
276,277,766,680,182,framenr_277_framevid_example8,50.0
277,278,768,680,186,framenr_278_framevid_example8,50.0
278,279,758,692,169,framenr_279_framevid_example8,50.0
279,280,776,682,188,framenr_280_framevid_example8,50.0
280,281,758,710,170,framenr_281_framevid_example8,50.0
281,282,774,696,183,framenr_282_framevid_example8,50.0
282,283,746,728,161,framenr_283_framevid_example8,50.0
283,284,768,708,180,framenr_284_framevid_example8,50.0
284,285,756,722,168,framenr_285_framevid_example8,50.0
285,286,736,746,154,framenr_286_framevid_example8,50.0
286,287,764,718,180,framenr_287_framevid_example8,50.0
287,288,758,726,171,framenr_288_framevid_example8,50.0
288,289,770,712,187,framenr_289_framevid_example8,50.0
289,290,740,746,155,framenr_290_framevid_example8,50.0
290,291,742,744,157,framenr_291_framevid_example8,50.0
291,292,762,724,170,framenr_292_framevid_example8,50.0
292,293,770,716,180,framenr_293_framevid_example8,50.0
293,294,776,710,188,framenr_294_framevid_example8,50.0
294,295,746,746,156,framenr_295_framevid_example8,50.0
295,296,744,744,158,framenr_296_framevid_example8,50.0
296,297,742,746,155,framenr_297_framevid_example8,50.0
297,298,802,700,233,framenr_298_framevid_example8,50.0
298,299,744,746,164,framenr_299_framevid_example8,50.0
299,300,738,754,157,framenr_300_framevid_example8,50.0
300,301,734,756,152,framenr_301_framevid_example8,50.0
301,302,774,722,188,framenr_302_framevid_example8,50.0
302,303,740,748,158,framenr_303_framevid_example8,50.0
303,304,736,748,153,framenr_304_framevid_example8,50.0
304,305,738,752,149,framenr_305_framevid_example8,50.0
305,306,756,724,182,framenr_306_framevid_example8,50.0
306,307,778,704,194,framenr_307_framevid_example8,50.0
307,308,756,724,178,framenr_308_framevid_example8,50.0
308,309,768,722,171,framenr_309_framevid_example8,50.0
309,310,786,706,193,framenr_310_framevid_example8,50.0
310,311,774,718,173,framenr_311_framevid_example8,50.0
311,312,764,728,171,framenr_312_framevid_example8,50.0
312,313,772,724,177,framenr_313_framevid_example8,50.0
313,314,772,722,175,framenr_314_framevid_example8,50.0
314,315,788,706,181,framenr_315_framevid_example8,50.0
315,316,772,724,170,framenr_316_framevid_example8,50.0
316,317,800,696,191,framenr_317_framevid_example8,50.0
317,318,802,692,193,framenr_318_framevid_example8,50.0
318,319,788,708,183,framenr_319_framevid_example8,50.0
319,320,784,712,175,framenr_320_framevid_example8,50.0
320,321,786,706,176,framenr_321_framevid_example8,50.0
321,322,808,678,195,framenr_322_framevid_example8,50.0
322,323,792,698,183,framenr_323_framevid_example8,50.0
323,324,794,698,181,framenr_324_framevid_example8,50.0
324,325,796,688,184,framenr_325_framevid_example8,50.0
325,326,798,682,184,framenr_326_framevid_example8,50.0
326,327,794,690,168,framenr_327_framevid_example8,50.0
327,328,792,702,151,framenr_328_framevid_example8,50.0
328,329,806,680,167,framenr_329_framevid_example8,50.0
329,330,806,668,167,framenr_330_framevid_example8,50.0
330,331,818,662,175,framenr_331_framevid_example8,50.0
331,332,830,660,174,framenr_332_framevid_example8,50.0
332,333,834,660,164,framenr_333_framevid_example8,50.0
333,334,858,626,192,framenr_334_framevid_example8,50.0
334,335,840,632,169,framenr_335_framevid_example8,50.0
335,336,840,626,178,framenr_336_framevid_example8,50.0
336,337,844,636,182,framenr_337_framevid_example8,50.0
337,338,828,642,168,framenr_338_framevid_example8,50.0
338,339,834,646,168,framenr_339_framevid_example8,50.0
339,340,846,628,180,framenr_340_framevid_example8,50.0
340,341,836,620,175,framenr_341_framevid_example8,50.0
341,342,842,622,188,framenr_342_framevid_example8,50.0
342,343,858,650,196,framenr_343_framevid_example8,50.0
343,344,840,674,167,framenr_344_framevid_example8,50.0
344,345,848,650,171,framenr_345_framevid_example8,50.0
345,346,844,646,180,framenr_346_framevid_example8,50.0
346,347,840,648,174,framenr_347_framevid_example8,50.0
347,348,836,656,171,framenr_348_framevid_example8,50.0
348,349,840,678,160,framenr_349_framevid_example8,50.0
349,350,842,694,171,framenr_350_framevid_example8,50.0
350,351,830,680,166,framenr_351_framevid_example8,50.0
351,352,838,662,177,framenr_352_framevid_example8,50.0
352,353,870,628,204,framenr_353_framevid_example8,50.0
353,354,826,658,165,framenr_354_framevid_example8,50.0
354,355,866,634,201,framenr_355_framevid_example8,50.0
355,356,866,676,185,framenr_356_framevid_example8,50.0
356,357,864,686,178,framenr_357_framevid_example8,50.0
357,358,850,672,184,framenr_358_framevid_example8,50.0
358,359,850,652,173,framenr_359_framevid_example8,50.0
359,360,860,628,187,framenr_360_framevid_example8,50.0
360,361,850,624,181,framenr_361_framevid_example8,50.0
361,362,862,628,188,framenr_362_framevid_example8,50.0
362,363,826,476,172,framenr_363_framevid_example8,50.0
363,364,868,674,171,framenr_364_framevid_example8,50.0
364,365,874,660,178,framenr_365_framevid_example8,50.0
365,366,874,638,183,framenr_366_framevid_example8,50.0
366,367,876,624,183,framenr_367_framevid_example8,50.0
367,368,870,620,178,framenr_368_framevid_example8,50.0
368,369,874,614,187,framenr_369_framevid_example8,50.0
369,370,856,642,178,framenr_370_framevid_example8,50.0
370,371,842,682,136,framenr_371_framevid_example8,50.0
371,372,854,684,166,framenr_372_framevid_example8,50.0
372,373,870,660,173,framenr_373_framevid_example8,50.0
373,374,876,638,181,framenr_374_framevid_example8,50.0
374,375,878,620,190,framenr_375_framevid_example8,50.0
375,376,872,620,188,framenr_376_framevid_example8,50.0
376,377,856,640,171,framenr_377_framevid_example8,50.0
377,378,880,642,194,framenr_378_framevid_example8,50.0
378,379,870,680,179,framenr_379_framevid_example8,50.0
379,380,876,696,169,framenr_380_framevid_example8,50.0
380,381,896,694,162,framenr_381_framevid_example8,50.0
381,382,968,650,236,framenr_382_framevid_example8,50.0
382,383,876,534,236,framenr_383_framevid_example8,50.0
383,384,878,544,242,framenr_384_framevid_example8,50.0
384,385,902,716,155,framenr_385_framevid_example8,50.0
385,386,894,722,167,framenr_386_framevid_example8,50.0
386,387,906,706,177,framenr_387_framevid_example8,50.0
387,388,884,568,260,framenr_388_framevid_example8,50.0
388,389,898,714,180,framenr_389_framevid_example8,50.0
389,390,892,554,243,framenr_390_framevid_example8,50.0
390,391,896,724,168,framenr_391_framevid_example8,50.0
391,392,892,570,237,framenr_392_framevid_example8,50.0
392,393,892,726,162,framenr_393_framevid_example8,50.0
393,394,892,724,161,framenr_394_framevid_example8,50.0
394,395,888,724,156,framenr_395_framevid_example8,50.0
395,396,896,538,230,framenr_396_framevid_example8,50.0
396,397,904,710,171,framenr_397_framevid_example8,50.0
397,398,898,708,164,framenr_398_framevid_example8,50.0
398,399,894,714,151,framenr_399_framevid_example8,50.0
399,400,930,678,181,framenr_400_framevid_example8,50.0
400,401,924,682,165,framenr_401_framevid_example8,50.0
401,402,902,516,209,framenr_402_framevid_example8,50.0
402,403,938,658,174,framenr_403_framevid_example8,50.0
403,404,984,626,225,framenr_404_framevid_example8,50.0
404,405,956,638,191,framenr_405_framevid_example8,50.0
405,406,954,634,190,framenr_406_framevid_example8,50.0
406,407,956,636,189,framenr_407_framevid_example8,50.0
407,408,958,632,192,framenr_408_framevid_example8,50.0
408,409,924,660,161,framenr_409_framevid_example8,50.0
409,410,1078,806,113,framenr_410_framevid_example8,50.0
410,411,914,660,157,framenr_411_framevid_example8,50.0
411,412,920,650,160,framenr_412_framevid_example8,50.0
412,413,906,654,167,framenr_413_framevid_example8,50.0
413,414,928,646,193,framenr_414_framevid_example8,50.0
414,415,918,644,186,framenr_415_framevid_example8,50.0
415,416,920,646,189,framenr_416_framevid_example8,50.0
416,417,932,638,190,framenr_417_framevid_example8,50.0
417,418,926,648,194,framenr_418_framevid_example8,50.0
418,419,920,650,175,framenr_419_framevid_example8,50.0
419,420,908,666,172,framenr_420_framevid_example8,50.0
420,421,906,666,173,framenr_421_framevid_example8,50.0
421,422,904,664,173,framenr_422_framevid_example8,50.0
422,423,918,650,180,framenr_423_framevid_example8,50.0
423,424,904,662,179,framenr_424_framevid_example8,50.0
424,425,902,662,180,framenr_425_framevid_example8,50.0
425,426,920,640,196,framenr_426_framevid_example8,50.0
426,427,910,654,195,framenr_427_framevid_example8,50.0
427,428,926,636,204,framenr_428_framevid_example8,50.0
428,429,908,654,194,framenr_429_framevid_example8,50.0
429,430,910,654,195,framenr_430_framevid_example8,50.0
430,431,904,654,175,framenr_431_framevid_example8,50.0
431,432,922,640,197,framenr_432_framevid_example8,50.0
432,433,924,640,196,framenr_433_framevid_example8,50.0
433,434,916,648,198,framenr_434_framevid_example8,50.0
434,435,912,648,180,framenr_435_framevid_example8,50.0
435,436,912,654,175,framenr_436_framevid_example8,50.0
436,437,934,634,204,framenr_437_framevid_example8,50.0
437,438,926,640,193,framenr_438_framevid_example8,50.0
438,439,924,642,190,framenr_439_framevid_example8,50.0
439,440,904,662,173,framenr_440_framevid_example8,50.0
440,441,924,642,187,framenr_441_framevid_example8,50.0
441,442,928,638,191,framenr_442_framevid_example8,50.0
442,443,896,666,164,framenr_443_framevid_example8,50.0
443,444,910,652,166,framenr_444_framevid_example8,50.0
444,445,900,662,164,framenr_445_framevid_example8,50.0
445,446,896,654,165,framenr_446_framevid_example8,50.0
446,447,918,646,187,framenr_447_framevid_example8,50.0
447,448,930,638,187,framenr_448_framevid_example8,50.0
448,449,924,642,180,framenr_449_framevid_example8,50.0
449,450,908,652,161,framenr_450_framevid_example8,50.0
450,451,914,652,180,framenr_451_framevid_example8,50.0
451,452,926,640,182,framenr_452_framevid_example8,50.0
452,453,916,654,180,framenr_453_framevid_example8,50.0
453,454,918,650,170,framenr_454_framevid_example8,50.0
454,455,912,654,178,framenr_455_framevid_example8,50.0
455,456,914,650,167,framenr_456_framevid_example8,50.0
456,457,914,652,165,framenr_457_framevid_example8,50.0
457,458,916,648,171,framenr_458_framevid_example8,50.0
458,459,924,640,181,framenr_459_framevid_example8,50.0
459,460,908,654,175,framenr_460_framevid_example8,50.0
460,461,922,638,182,framenr_461_framevid_example8,50.0
461,462,896,668,158,framenr_462_framevid_example8,50.0
462,463,922,640,180,framenr_463_framevid_example8,50.0
463,464,922,640,180,framenr_464_framevid_example8,50.0
464,465,930,380,112,framenr_465_framevid_example8,50.0
465,466,928,632,189,framenr_466_framevid_example8,50.0
466,467,942,626,206,framenr_467_framevid_example8,50.0
467,468,926,402,44,framenr_468_framevid_example8,50.0
468,469,878,690,126,framenr_469_framevid_example8,50.0
469,470,920,636,180,framenr_470_framevid_example8,50.0
470,471,918,636,180,framenr_471_framevid_example8,50.0
471,472,920,632,185,framenr_472_framevid_example8,50.0
472,473,922,632,186,framenr_473_framevid_example8,50.0
473,474,924,628,189,framenr_474_framevid_example8,50.0
474,475,924,626,192,framenr_475_framevid_example8,50.0
475,476,914,634,180,framenr_476_framevid_example8,50.0
476,477,912,638,175,framenr_477_framevid_example8,50.0
477,478,922,628,190,framenr_478_framevid_example8,50.0
478,479,914,634,180,framenr_479_framevid_example8,50.0
479,480,920,628,187,framenr_480_framevid_example8,50.0
480,481,904,640,169,framenr_481_framevid_example8,50.0
481,482,896,650,171,framenr_482_framevid_example8,50.0
482,483,920,628,187,framenr_483_framevid_example8,50.0
483,484,914,630,182,framenr_484_framevid_example8,50.0
484,485,918,626,188,framenr_485_framevid_example8,50.0
485,486,906,640,170,framenr_486_framevid_example8,50.0
486,487,908,634,176,framenr_487_framevid_example8,50.0
487,488,902,642,166,framenr_488_framevid_example8,50.0
488,489,904,642,170,framenr_489_framevid_example8,50.0
489,490,878,666,150,framenr_490_framevid_example8,50.0
490,491,882,656,151,framenr_491_framevid_example8,50.0
491,492,876,664,153,framenr_492_framevid_example8,50.0
492,493,916,624,196,framenr_493_framevid_example8,50.0
493,494,896,640,174,framenr_494_framevid_example8,50.0
494,495,900,636,183,framenr_495_framevid_example8,50.0
495,496,900,638,186,framenr_496_framevid_example8,50.0
496,497,876,654,166,framenr_497_framevid_example8,50.0
497,498,872,654,168,framenr_498_framevid_example8,50.0
498,499,858,664,179,framenr_499_framevid_example8,50.0
499,500,858,670,170,framenr_500_framevid_example8,50.0
500,501,836,678,167,framenr_501_framevid_example8,50.0
501,502,832,688,185,framenr_502_framevid_example8,50.0
502,503,828,690,177,framenr_503_framevid_example8,50.0
503,504,812,708,168,framenr_504_framevid_example8,50.0
504,505,792,710,176,framenr_505_framevid_example8,50.0
505,506,796,704,193,framenr_506_framevid_example8,50.0
506,507,772,736,163,framenr_507_framevid_example8,50.0
507,508,766,738,162,framenr_508_framevid_example8,50.0
508,509,760,746,155,framenr_509_framevid_example8,50.0
509,510,764,738,165,framenr_510_framevid_example8,50.0
510,511,788,716,184,framenr_511_framevid_example8,50.0
511,512,768,734,171,framenr_512_framevid_example8,50.0
512,513,776,736,162,framenr_513_framevid_example8,50.0
513,514,778,738,158,framenr_514_framevid_example8,50.0
514,515,778,732,163,framenr_515_framevid_example8,50.0
515,516,776,732,160,framenr_516_framevid_example8,50.0
516,517,768,742,149,framenr_517_framevid_example8,50.0
517,518,770,738,166,framenr_518_framevid_example8,50.0
518,519,770,752,155,framenr_519_framevid_example8,50.0
519,520,782,740,158,framenr_520_framevid_example8,50.0
520,521,784,746,155,framenr_521_framevid_example8,50.0
521,522,776,756,143,framenr_522_framevid_example8,50.0
522,523,684,570,221,framenr_523_framevid_example8,50.0
523,524,784,752,152,framenr_524_framevid_example8,50.0
524,525,782,752,152,framenr_525_framevid_example8,50.0
525,526,774,758,158,framenr_526_framevid_example8,50.0
526,527,784,756,152,framenr_527_framevid_example8,50.0
527,528,774,760,157,framenr_528_framevid_example8,50.0
528,529,774,762,142,framenr_529_framevid_example8,50.0
529,530,792,742,171,framenr_530_framevid_example8,50.0
530,531,774,758,149,framenr_531_framevid_example8,50.0
531,532,772,758,149,framenr_532_framevid_example8,50.0
532,533,780,740,171,framenr_533_framevid_example8,50.0
533,534,744,780,136,framenr_534_framevid_example8,50.0
534,535,746,774,131,framenr_535_framevid_example8,50.0
535,536,766,756,160,framenr_536_framevid_example8,50.0
536,537,764,752,163,framenr_537_framevid_example8,50.0
537,538,702,592,260,framenr_538_framevid_example8,50.0
538,539,762,746,166,framenr_539_framevid_example8,50.0
539,540,760,748,165,framenr_540_framevid_example8,50.0
540,541,760,750,161,framenr_541_framevid_example8,50.0
541,542,744,740,178,framenr_542_framevid_example8,50.0
542,543,742,760,148,framenr_543_framevid_example8,50.0
543,544,736,772,134,framenr_544_framevid_example8,50.0
544,545,756,750,162,framenr_545_framevid_example8,50.0
545,546,754,752,160,framenr_546_framevid_example8,50.0
546,547,742,738,179,framenr_547_framevid_example8,50.0
547,548,756,750,162,framenr_548_framevid_example8,50.0
548,549,756,752,161,framenr_549_framevid_example8,50.0
549,550,758,748,163,framenr_550_framevid_example8,50.0
550,551,756,752,162,framenr_551_framevid_example8,50.0
551,552,706,598,222,framenr_552_framevid_example8,50.0
552,553,762,744,165,framenr_553_framevid_example8,50.0
553,554,764,750,159,framenr_554_framevid_example8,50.0
554,555,686,594,204,framenr_555_framevid_example8,50.0
555,556,702,604,256,framenr_556_framevid_example8,50.0
556,557,766,750,156,framenr_557_framevid_example8,50.0
557,558,770,744,160,framenr_558_framevid_example8,50.0
558,559,774,742,163,framenr_559_framevid_example8,50.0
559,560,758,736,170,framenr_560_framevid_example8,50.0
560,561,770,738,161,framenr_561_framevid_example8,50.0
561,562,758,756,139,framenr_562_framevid_example8,50.0
562,563,758,752,141,framenr_563_framevid_example8,50.0
563,564,746,766,123,framenr_564_framevid_example8,50.0
564,565,770,746,153,framenr_565_framevid_example8,50.0
565,566,746,768,137,framenr_566_framevid_example8,50.0
566,567,700,588,263,framenr_567_framevid_example8,50.0
567,568,756,756,138,framenr_568_framevid_example8,50.0
568,569,756,756,138,framenr_569_framevid_example8,50.0
569,570,756,758,150,framenr_570_framevid_example8,50.0
570,571,766,746,150,framenr_571_framevid_example8,50.0
571,572,616,652,76,framenr_572_framevid_example8,50.0
572,573,754,754,136,framenr_573_framevid_example8,50.0
573,574,754,760,131,framenr_574_framevid_example8,50.0
574,575,704,590,263,framenr_575_framevid_example8,50.0
575,576,704,600,257,framenr_576_framevid_example8,50.0
576,577,744,766,133,framenr_577_framevid_example8,50.0
577,578,770,742,152,framenr_578_framevid_example8,50.0
578,579,770,742,150,framenr_579_framevid_example8,50.0
579,580,758,754,148,framenr_580_framevid_example8,50.0
580,581,796,768,110,framenr_581_framevid_example8,50.0
581,582,768,736,151,framenr_582_framevid_example8,50.0
582,583,698,592,209,framenr_583_framevid_example8,50.0
583,584,754,742,136,framenr_584_framevid_example8,50.0
584,585,766,734,151,framenr_585_framevid_example8,50.0
585,586,754,744,135,framenr_586_framevid_example8,50.0
586,587,752,738,152,framenr_587_framevid_example8,50.0
587,588,774,744,139,framenr_588_framevid_example8,50.0
588,589,766,746,140,framenr_589_framevid_example8,50.0
589,590,770,722,158,framenr_590_framevid_example8,50.0
590,591,760,740,151,framenr_591_framevid_example8,50.0
591,592,702,588,208,framenr_592_framevid_example8,50.0
592,593,768,726,150,framenr_593_framevid_example8,50.0
593,594,772,724,153,framenr_594_framevid_example8,50.0
594,595,762,734,137,framenr_595_framevid_example8,50.0
595,596,606,622,86,framenr_596_framevid_example8,50.0
596,597,812,778,86,framenr_597_framevid_example8,50.0
597,598,622,632,67,framenr_598_framevid_example8,50.0
598,599,608,624,83,framenr_599_framevid_example8,50.0
599,600,620,624,73,framenr_600_framevid_example8,50.0
600,601,550,470,39,framenr_601_framevid_example8,50.0
601,602,614,602,85,framenr_602_framevid_example8,50.0
602,603,620,598,81,framenr_603_framevid_example8,50.0
603,604,810,752,95,framenr_604_framevid_example8,50.0
604,605,618,592,84,framenr_605_framevid_example8,50.0
605,606,762,714,134,framenr_606_framevid_example8,50.0
606,607,630,594,72,framenr_607_framevid_example8,50.0
607,608,628,594,74,framenr_608_framevid_example8,50.0
608,609,760,720,125,framenr_609_framevid_example8,50.0
609,610,626,596,75,framenr_610_framevid_example8,50.0
610,611,628,590,78,framenr_611_framevid_example8,50.0
611,612,1342,402,170,framenr_612_framevid_example8,50.0
612,613,628,590,78,framenr_613_framevid_example8,50.0
613,614,640,592,87,framenr_614_framevid_example8,50.0
614,615,632,592,75,framenr_615_framevid_example8,50.0
615,616,630,584,77,framenr_616_framevid_example8,50.0
616,617,762,716,121,framenr_617_framevid_example8,50.0
617,618,756,718,128,framenr_618_framevid_example8,50.0
618,619,632,590,75,framenr_619_framevid_example8,50.0
619,620,626,550,74,framenr_620_framevid_example8,50.0
620,621,632,584,76,framenr_621_framevid_example8,50.0
621,622,1340,464,218,framenr_622_framevid_example8,50.0
622,623,656,576,100,framenr_623_framevid_example8,50.0
623,624,634,580,79,framenr_624_framevid_example8,50.0
624,625,644,580,88,framenr_625_framevid_example8,50.0
625,626,632,572,78,framenr_626_framevid_example8,50.0
626,627,634,580,80,framenr_627_framevid_example8,50.0
627,628,764,712,119,framenr_628_framevid_example8,50.0
628,629,632,578,78,framenr_629_framevid_example8,50.0
629,630,798,746,90,framenr_630_framevid_example8,50.0
630,631,634,580,80,framenr_631_framevid_example8,50.0
631,632,634,580,79,framenr_632_framevid_example8,50.0
632,633,758,564,259,framenr_633_framevid_example8,50.0
633,634,634,578,79,framenr_634_framevid_example8,50.0
634,635,634,580,78,framenr_635_framevid_example8,50.0
635,636,634,578,78,framenr_636_framevid_example8,50.0
636,637,634,580,78,framenr_637_framevid_example8,50.0
637,638,634,580,78,framenr_638_framevid_example8,50.0
638,639,636,578,79,framenr_639_framevid_example8,50.0
639,640,638,578,80,framenr_640_framevid_example8,50.0
640,641,646,580,86,framenr_641_framevid_example8,50.0
641,642,642,574,80,framenr_642_framevid_example8,50.0
642,643,642,562,92,framenr_643_framevid_example8,50.0
643,644,630,564,84,framenr_644_framevid_example8,50.0
644,645,618,554,69,framenr_645_framevid_example8,50.0
645,646,646,576,87,framenr_646_framevid_example8,50.0
646,647,636,574,77,framenr_647_framevid_example8,50.0
647,648,646,572,86,framenr_648_framevid_example8,50.0
648,649,646,572,86,framenr_649_framevid_example8,50.0
649,650,622,564,61,framenr_650_framevid_example8,50.0
650,651,640,570,82,framenr_651_framevid_example8,50.0
651,652,1460,306,88,framenr_652_framevid_example8,50.0
652,653,634,562,77,framenr_653_framevid_example8,50.0
653,654,650,562,92,framenr_654_framevid_example8,50.0
654,655,618,560,67,framenr_655_framevid_example8,50.0
655,656,660,560,60,framenr_656_framevid_example8,50.0
656,657,600,558,48,framenr_657_framevid_example8,50.0
657,658,664,560,44,framenr_658_framevid_example8,50.0
658,659,670,556,37,framenr_659_framevid_example8,50.0
659,660,1406,462,90,framenr_660_framevid_example8,50.0
660,661,666,538,44,framenr_661_framevid_example8,50.0
661,662,602,482,79,framenr_662_framevid_example8,50.0
662,663,762,570,247,framenr_663_framevid_example8,50.0
663,664,1314,438,137,framenr_664_framevid_example8,50.0
664,665,1338,420,132,framenr_665_framevid_example8,50.0
665,666,628,354,24,framenr_666_framevid_example8,50.0
666,667,624,482,64,framenr_667_framevid_example8,50.0
667,668,608,478,78,framenr_668_framevid_example8,50.0
668,669,626,476,100,framenr_669_framevid_example8,50.0
669,670,1306,456,185,framenr_670_framevid_example8,50.0
670,671,780,522,200,framenr_671_framevid_example8,50.0
671,672,788,522,127,framenr_672_framevid_example8,50.0
672,673,780,514,197,framenr_673_framevid_example8,50.0
673,674,1560,282,147,framenr_674_framevid_example8,50.0
674,675,792,572,76,framenr_675_framevid_example8,50.0
675,676,604,480,94,framenr_676_framevid_example8,50.0
676,677,630,476,75,framenr_677_framevid_example8,50.0
677,678,656,514,83,framenr_678_framevid_example8,50.0
678,679,672,528,86,framenr_679_framevid_example8,50.0
679,680,718,530,117,framenr_680_framevid_example8,50.0
680,681,690,566,105,framenr_681_framevid_example8,50.0
681,682,730,578,89,framenr_682_framevid_example8,50.0
682,683,746,610,95,framenr_683_framevid_example8,50.0
683,684,762,618,85,framenr_684_framevid_example8,50.0
684,685,766,648,68,framenr_685_framevid_example8,50.0
685,686,786,654,78,framenr_686_framevid_example8,50.0
686,687,828,600,108,framenr_687_framevid_example8,50.0
687,688,1342,426,141,framenr_688_framevid_example8,50.0
688,689,804,686,66,framenr_689_framevid_example8,50.0
689,690,854,714,112,framenr_690_framevid_example8,50.0
690,691,826,702,72,framenr_691_framevid_example8,50.0
691,692,826,708,68,framenr_692_framevid_example8,50.0
692,693,824,716,65,framenr_693_framevid_example8,50.0
693,694,826,722,63,framenr_694_framevid_example8,50.0
694,695,838,726,69,framenr_695_framevid_example8,50.0
695,696,840,736,70,framenr_696_framevid_example8,50.0
696,697,840,738,66,framenr_697_framevid_example8,50.0
697,698,844,742,66,framenr_698_framevid_example8,50.0
698,699,698,608,234,framenr_699_framevid_example8,50.0
699,700,858,628,226,framenr_700_framevid_example8,50.0
700,701,962,544,116,framenr_701_framevid_example8,50.0
701,702,850,742,67,framenr_702_framevid_example8,50.0
702,703,844,742,60,framenr_703_framevid_example8,50.0
703,704,858,754,57,framenr_704_framevid_example8,50.0
704,705,856,744,62,framenr_705_framevid_example8,50.0
705,706,860,744,62,framenr_706_framevid_example8,50.0
706,707,860,746,59,framenr_707_framevid_example8,50.0
707,708,688,620,216,framenr_708_framevid_example8,50.0
708,709,712,602,247,framenr_709_framevid_example8,50.0
709,710,850,532,102,framenr_710_framevid_example8,50.0
710,711,990,642,198,framenr_711_framevid_example8,50.0
711,712,950,686,136,framenr_712_framevid_example8,50.0
712,713,716,614,243,framenr_713_framevid_example8,50.0
713,714,934,660,243,framenr_714_framevid_example8,50.0
714,715,940,660,247,framenr_715_framevid_example8,50.0
715,716,1328,466,203,framenr_716_framevid_example8,50.0
716,717,902,608,185,framenr_717_framevid_example8,50.0
717,718,916,550,139,framenr_718_framevid_example8,50.0
718,719,896,606,202,framenr_719_framevid_example8,50.0
719,720,924,544,134,framenr_720_framevid_example8,50.0
720,721,942,654,237,framenr_721_framevid_example8,50.0
721,722,906,540,116,framenr_722_framevid_example8,50.0
722,723,916,630,200,framenr_723_framevid_example8,50.0
723,724,934,554,143,framenr_724_framevid_example8,50.0
724,725,1324,458,194,framenr_725_framevid_example8,50.0
725,726,910,768,63,framenr_726_framevid_example8,50.0
726,727,960,556,143,framenr_727_framevid_example8,50.0
727,728,904,594,190,framenr_728_framevid_example8,50.0
728,729,950,562,152,framenr_729_framevid_example8,50.0
729,730,892,586,179,framenr_730_framevid_example8,50.0
730,731,966,714,127,framenr_731_framevid_example8,50.0
731,732,952,548,139,framenr_732_framevid_example8,50.0
732,733,894,588,182,framenr_733_framevid_example8,50.0
733,734,878,566,84,framenr_734_framevid_example8,50.0
734,735,722,598,253,framenr_735_framevid_example8,50.0
735,736,980,650,198,framenr_736_framevid_example8,50.0
736,737,892,596,190,framenr_737_framevid_example8,50.0
737,738,924,564,168,framenr_738_framevid_example8,50.0
738,739,892,592,185,framenr_739_framevid_example8,50.0
739,740,888,594,186,framenr_740_framevid_example8,50.0
740,741,884,582,172,framenr_741_framevid_example8,50.0
741,742,944,542,136,framenr_742_framevid_example8,50.0
742,743,934,662,163,framenr_743_framevid_example8,50.0
743,744,1564,260,181,framenr_744_framevid_example8,50.0
744,745,894,570,164,framenr_745_framevid_example8,50.0
745,746,952,566,128,framenr_746_framevid_example8,50.0
746,747,1566,262,177,framenr_747_framevid_example8,50.0
747,748,942,568,139,framenr_748_framevid_example8,50.0
748,749,968,538,121,framenr_749_framevid_example8,50.0
749,750,896,590,188,framenr_750_framevid_example8,50.0
750,751,902,552,106,framenr_751_framevid_example8,50.0
751,752,930,634,205,framenr_752_framevid_example8,50.0
752,753,950,558,129,framenr_753_framevid_example8,50.0
753,754,890,574,170,framenr_754_framevid_example8,50.0
754,755,952,560,146,framenr_755_framevid_example8,50.0
755,756,884,580,177,framenr_756_framevid_example8,50.0
756,757,932,568,166,framenr_757_framevid_example8,50.0
757,758,884,578,176,framenr_758_framevid_example8,50.0
758,759,946,560,151,framenr_759_framevid_example8,50.0
759,760,894,556,98,framenr_760_framevid_example8,50.0
760,761,956,724,109,framenr_761_framevid_example8,50.0
761,762,942,570,180,framenr_762_framevid_example8,50.0
762,763,954,542,133,framenr_763_framevid_example8,50.0
763,764,896,560,97,framenr_764_framevid_example8,50.0
764,765,884,594,192,framenr_765_framevid_example8,50.0
765,766,890,604,206,framenr_766_framevid_example8,50.0
766,767,892,580,184,framenr_767_framevid_example8,50.0
767,768,894,578,185,framenr_768_framevid_example8,50.0
768,769,886,554,161,framenr_769_framevid_example8,50.0
769,770,888,564,79,framenr_770_framevid_example8,50.0
770,771,898,558,86,framenr_771_framevid_example8,50.0
771,772,960,540,135,framenr_772_framevid_example8,50.0
772,773,1326,434,200,framenr_773_framevid_example8,50.0
773,774,924,540,104,framenr_774_framevid_example8,50.0
774,775,930,538,102,framenr_775_framevid_example8,50.0
775,776,1300,428,180,framenr_776_framevid_example8,50.0
776,777,950,760,61,framenr_777_framevid_example8,50.0
777,778,944,596,64,framenr_778_framevid_example8,50.0
778,779,948,558,163,framenr_779_framevid_example8,50.0
779,780,974,750,62,framenr_780_framevid_example8,50.0
780,781,984,746,61,framenr_781_framevid_example8,50.0
781,782,1568,242,175,framenr_782_framevid_example8,50.0
782,783,1000,738,62,framenr_783_framevid_example8,50.0
783,784,1024,736,73,framenr_784_framevid_example8,50.0
784,785,998,504,85,framenr_785_framevid_example8,50.0
785,786,1324,434,202,framenr_786_framevid_example8,50.0
786,787,1326,418,151,framenr_787_framevid_example8,50.0
787,788,944,622,255,framenr_788_framevid_example8,50.0
788,789,1038,712,56,framenr_789_framevid_example8,50.0
789,790,1060,692,59,framenr_790_framevid_example8,50.0
790,791,1324,362,209,framenr_791_framevid_example8,50.0
791,792,1324,434,204,framenr_792_framevid_example8,50.0
792,793,1070,692,60,framenr_793_framevid_example8,50.0
793,794,1096,688,81,framenr_794_framevid_example8,50.0
794,795,1050,446,86,framenr_795_framevid_example8,50.0
795,796,1108,688,88,framenr_796_framevid_example8,50.0
796,797,1338,424,169,framenr_797_framevid_example8,50.0
797,798,1326,428,204,framenr_798_framevid_example8,50.0
798,799,1334,376,135,framenr_799_framevid_example8,50.0
799,800,1180,678,229,framenr_800_framevid_example8,50.0
800,801,1160,670,128,framenr_801_framevid_example8,50.0
801,802,1328,428,206,framenr_802_framevid_example8,50.0
802,803,1124,652,86,framenr_803_framevid_example8,50.0
803,804,1346,368,124,framenr_804_framevid_example8,50.0
804,805,632,548,116,framenr_805_framevid_example8,50.0
805,806,1320,414,194,framenr_806_framevid_example8,50.0
806,807,1326,430,169,framenr_807_framevid_example8,50.0
807,808,1330,428,211,framenr_808_framevid_example8,50.0
808,809,1308,458,169,framenr_809_framevid_example8,50.0
809,810,1326,412,200,framenr_810_framevid_example8,50.0
810,811,1306,452,171,framenr_811_framevid_example8,50.0
811,812,1326,422,208,framenr_812_framevid_example8,50.0
812,813,1280,406,200,framenr_813_framevid_example8,50.0
813,814,1334,412,168,framenr_814_framevid_example8,50.0
814,815,1326,416,204,framenr_815_framevid_example8,50.0
815,816,1194,630,153,framenr_816_framevid_example8,50.0
816,817,1326,418,205,framenr_817_framevid_example8,50.0
817,818,1326,408,198,framenr_818_framevid_example8,50.0
818,819,1190,630,145,framenr_819_framevid_example8,50.0
819,820,1322,420,205,framenr_820_framevid_example8,50.0
820,821,1332,414,208,framenr_821_framevid_example8,50.0
821,822,1330,402,198,framenr_822_framevid_example8,50.0
822,823,1306,438,178,framenr_823_framevid_example8,50.0
823,824,1332,412,208,framenr_824_framevid_example8,50.0
824,825,1330,406,201,framenr_825_framevid_example8,50.0
825,826,1308,444,174,framenr_826_framevid_example8,50.0
826,827,1324,408,198,framenr_827_framevid_example8,50.0
827,828,1120,600,71,framenr_828_framevid_example8,50.0
828,829,1306,434,180,framenr_829_framevid_example8,50.0
829,830,1330,412,206,framenr_830_framevid_example8,50.0
830,831,1330,408,204,framenr_831_framevid_example8,50.0
831,832,1136,588,80,framenr_832_framevid_example8,50.0
832,833,1186,824,152,framenr_833_framevid_example8,50.0
833,834,1332,408,205,framenr_834_framevid_example8,50.0
834,835,1172,600,117,framenr_835_framevid_example8,50.0
835,836,1238,446,142,framenr_836_framevid_example8,50.0
836,837,1050,704,208,framenr_837_framevid_example8,50.0
837,838,1330,354,172,framenr_838_framevid_example8,50.0
838,839,1344,346,167,framenr_839_framevid_example8,50.0
839,840,1156,584,93,framenr_840_framevid_example8,50.0
840,841,1346,386,164,framenr_841_framevid_example8,50.0
841,842,1300,418,176,framenr_842_framevid_example8,50.0
842,843,1328,384,192,framenr_843_framevid_example8,50.0
843,844,1360,370,136,framenr_844_framevid_example8,50.0
844,845,1364,364,134,framenr_845_framevid_example8,50.0
845,846,1318,418,172,framenr_846_framevid_example8,50.0
846,847,1338,342,135,framenr_847_framevid_example8,50.0
847,848,1320,374,185,framenr_848_framevid_example8,50.0
848,849,1154,554,92,framenr_849_framevid_example8,50.0
849,850,1332,378,198,framenr_850_framevid_example8,50.0
850,851,1452,198,210,framenr_851_framevid_example8,50.0
851,852,1300,426,180,framenr_852_framevid_example8,50.0
852,853,1328,386,203,framenr_853_framevid_example8,50.0
853,854,1316,360,173,framenr_854_framevid_example8,50.0
854,855,1528,252,120,framenr_855_framevid_example8,50.0
855,856,1338,338,167,framenr_856_framevid_example8,50.0
856,857,1346,336,137,framenr_857_framevid_example8,50.0
857,858,1334,342,167,framenr_858_framevid_example8,50.0
858,859,1302,420,181,framenr_859_framevid_example8,50.0
859,860,1322,386,195,framenr_860_framevid_example8,50.0
860,861,1268,406,217,framenr_861_framevid_example8,50.0
861,862,1340,338,133,framenr_862_framevid_example8,50.0
862,863,1310,422,175,framenr_863_framevid_example8,50.0
863,864,1296,410,193,framenr_864_framevid_example8,50.0
864,865,1234,426,220,framenr_865_framevid_example8,50.0
865,866,1326,396,203,framenr_866_framevid_example8,50.0
866,867,1224,880,22,framenr_867_framevid_example8,50.0
867,868,1334,388,166,framenr_868_framevid_example8,50.0
868,869,1308,420,177,framenr_869_framevid_example8,50.0
869,870,1332,414,223,framenr_870_framevid_example8,50.0
870,871,1136,408,34,framenr_871_framevid_example8,50.0
871,872,1570,194,172,framenr_872_framevid_example8,50.0
872,873,1340,382,166,framenr_873_framevid_example8,50.0
873,874,1084,538,76,framenr_874_framevid_example8,50.0
874,875,1330,386,203,framenr_875_framevid_example8,50.0
875,876,1066,536,69,framenr_876_framevid_example8,50.0
876,877,1320,420,167,framenr_877_framevid_example8,50.0
877,878,1350,372,169,framenr_878_framevid_example8,50.0
878,879,1344,326,132,framenr_879_framevid_example8,50.0
879,880,1340,380,169,framenr_880_framevid_example8,50.0
880,881,1322,384,200,framenr_881_framevid_example8,50.0
881,882,1322,376,195,framenr_882_framevid_example8,50.0
882,883,1278,424,201,framenr_883_framevid_example8,50.0
883,884,1338,378,168,framenr_884_framevid_example8,50.0
884,885,1352,316,168,framenr_885_framevid_example8,50.0
885,886,1040,516,71,framenr_886_framevid_example8,50.0
886,887,1332,378,163,framenr_887_framevid_example8,50.0
887,888,1334,374,202,framenr_888_framevid_example8,50.0
888,889,1030,510,69,framenr_889_framevid_example8,50.0
889,890,1080,398,67,framenr_890_framevid_example8,50.0
890,891,1050,450,131,framenr_891_framevid_example8,50.0
891,892,1328,386,207,framenr_892_framevid_example8,50.0
892,893,1338,376,166,framenr_893_framevid_example8,50.0
893,894,1326,372,197,framenr_894_framevid_example8,50.0
894,895,1346,364,165,framenr_895_framevid_example8,50.0
895,896,1020,474,91,framenr_896_framevid_example8,50.0
896,897,1014,480,85,framenr_897_framevid_example8,50.0
897,898,1012,482,84,framenr_898_framevid_example8,50.0
898,899,1008,494,75,framenr_899_framevid_example8,50.0
899,900,1342,370,166,framenr_900_framevid_example8,50.0
900,901,1324,376,199,framenr_901_framevid_example8,50.0
901,902,1018,440,130,framenr_902_framevid_example8,50.0
902,903,980,406,145,framenr_903_framevid_example8,50.0
903,904,606,400,86,framenr_904_framevid_example8,50.0
904,905,1292,378,180,framenr_905_framevid_example8,50.0
905,906,990,498,73,framenr_906_framevid_example8,50.0
906,907,1004,512,91,framenr_907_framevid_example8,50.0
907,908,972,508,63,framenr_908_framevid_example8,50.0
908,909,958,458,194,framenr_909_framevid_example8,50.0
909,910,958,476,181,framenr_910_framevid_example8,50.0
910,911,1004,422,110,framenr_911_framevid_example8,50.0
911,912,990,504,136,framenr_912_framevid_example8,50.0
912,913,988,518,96,framenr_913_framevid_example8,50.0
913,914,988,514,96,framenr_914_framevid_example8,50.0
914,915,1310,380,197,framenr_915_framevid_example8,50.0
915,916,974,490,135,framenr_916_framevid_example8,50.0
916,917,950,472,183,framenr_917_framevid_example8,50.0
917,918,966,500,75,framenr_918_framevid_example8,50.0
918,919,1010,408,89,framenr_919_framevid_example8,50.0
919,920,956,402,129,framenr_920_framevid_example8,50.0
920,921,950,498,66,framenr_921_framevid_example8,50.0
921,922,974,514,88,framenr_922_framevid_example8,50.0
922,923,926,486,230,framenr_923_framevid_example8,50.0
923,924,960,512,97,framenr_924_framevid_example8,50.0
924,925,972,514,83,framenr_925_framevid_example8,50.0
925,926,924,482,225,framenr_926_framevid_example8,50.0
926,927,954,512,96,framenr_927_framevid_example8,50.0
927,928,936,442,181,framenr_928_framevid_example8,50.0
928,929,916,488,228,framenr_929_framevid_example8,50.0
929,930,1278,378,179,framenr_930_framevid_example8,50.0
930,931,924,496,73,framenr_931_framevid_example8,50.0
931,932,920,504,117,framenr_932_framevid_example8,50.0
932,933,936,512,96,framenr_933_framevid_example8,50.0
933,934,930,486,83,framenr_934_framevid_example8,50.0
934,935,908,496,72,framenr_935_framevid_example8,50.0
935,936,1060,706,164,framenr_936_framevid_example8,50.0
936,937,896,506,128,framenr_937_framevid_example8,50.0
937,938,1054,698,174,framenr_938_framevid_example8,50.0
938,939,936,420,116,framenr_939_framevid_example8,50.0
939,940,936,408,106,framenr_940_framevid_example8,50.0
940,941,1294,384,163,framenr_941_framevid_example8,50.0
941,942,948,492,132,framenr_942_framevid_example8,50.0
942,943,896,482,222,framenr_943_framevid_example8,50.0
943,944,1054,704,160,framenr_944_framevid_example8,50.0
944,945,538,398,64,framenr_945_framevid_example8,50.0
945,946,896,450,189,framenr_946_framevid_example8,50.0
946,947,878,482,223,framenr_947_framevid_example8,50.0
947,948,880,464,206,framenr_948_framevid_example8,50.0
948,949,854,424,167,framenr_949_framevid_example8,50.0
949,950,848,452,196,framenr_950_framevid_example8,50.0
950,951,842,448,194,framenr_951_framevid_example8,50.0
951,952,1248,400,198,framenr_952_framevid_example8,50.0
952,953,1248,402,202,framenr_953_framevid_example8,50.0
953,954,818,442,188,framenr_954_framevid_example8,50.0
954,955,1234,402,198,framenr_955_framevid_example8,50.0
955,956,794,446,190,framenr_956_framevid_example8,50.0
956,957,786,442,185,framenr_957_framevid_example8,50.0
957,958,730,450,207,framenr_958_framevid_example8,50.0
958,959,726,452,200,framenr_959_framevid_example8,50.0
959,960,726,452,194,framenr_960_framevid_example8,50.0
960,961,762,480,141,framenr_961_framevid_example8,50.0
961,962,946,718,175,framenr_962_framevid_example8,50.0
962,963,748,476,142,framenr_963_framevid_example8,50.0
963,964,736,478,143,framenr_964_framevid_example8,50.0
964,965,698,424,138,framenr_965_framevid_example8,50.0
965,966,712,432,181,framenr_966_framevid_example8,50.0
966,967,874,674,230,framenr_967_framevid_example8,50.0
967,968,870,668,231,framenr_968_framevid_example8,50.0
968,969,678,400,115,framenr_969_framevid_example8,50.0
969,970,632,474,89,framenr_970_framevid_example8,50.0
970,971,608,466,106,framenr_971_framevid_example8,50.0
971,972,584,468,117,framenr_972_framevid_example8,50.0
972,973,604,416,158,framenr_973_framevid_example8,50.0
973,974,800,664,228,framenr_974_framevid_example8,50.0
974,975,734,646,249,framenr_975_framevid_example8,50.0
975,976,680,650,237,framenr_976_framevid_example8,50.0
976,977,468,444,207,framenr_977_framevid_example8,50.0
977,978,612,676,203,framenr_978_framevid_example8,50.0
978,979,416,416,173,framenr_979_framevid_example8,50.0
979,980,514,648,253,framenr_980_framevid_example8,50.0
980,981,354,432,197,framenr_981_framevid_example8,50.0
981,982,484,650,245,framenr_982_framevid_example8,50.0
982,983,474,654,237,framenr_983_framevid_example8,50.0
983,984,442,636,263,framenr_984_framevid_example8,50.0
984,985,284,482,254,framenr_985_framevid_example8,50.0
985,986,506,692,165,framenr_986_framevid_example8,50.0
986,987,466,674,205,framenr_987_framevid_example8,50.0
987,988,594,604,245,framenr_988_framevid_example8,50.0
988,989,280,398,182,framenr_989_framevid_example8,50.0
989,990,486,708,159,framenr_990_framevid_example8,50.0
990,991,466,692,182,framenr_991_framevid_example8,50.0
991,992,278,376,166,framenr_992_framevid_example8,50.0
992,993,484,704,158,framenr_993_framevid_example8,50.0
993,994,280,366,159,framenr_994_framevid_example8,50.0
994,995,446,664,212,framenr_995_framevid_example8,50.0
995,996,450,680,198,framenr_996_framevid_example8,50.0
996,997,242,410,218,framenr_997_framevid_example8,50.0
997,998,276,362,161,framenr_998_framevid_example8,50.0
998,999,270,586,113,framenr_999_framevid_example8,50.0
999,1000,238,392,211,framenr_1000_framevid_example8,50.0
1000,1001,430,660,222,framenr_1001_framevid_example8,50.0
1001,1002,240,390,209,framenr_1002_framevid_example8,50.0
1002,1003,264,582,126,framenr_1003_framevid_example8,50.0
1003,1004,388,428,222,framenr_1004_framevid_example8,50.0
1004,1005,282,560,149,framenr_1005_framevid_example8,50.0
1005,1006,266,584,126,framenr_1006_framevid_example8,50.0
1006,1007,272,570,158,framenr_1007_framevid_example8,50.0
1007,1008,264,576,151,framenr_1008_framevid_example8,50.0
1008,1009,262,572,142,framenr_1009_framevid_example8,50.0
1009,1010,262,350,161,framenr_1010_framevid_example8,50.0
1010,1011,288,540,84,framenr_1011_framevid_example8,50.0
1011,1012,262,346,154,framenr_1012_framevid_example8,50.0
1012,1013,262,348,157,framenr_1013_framevid_example8,50.0
1013,1014,286,552,177,framenr_1014_framevid_example8,50.0
1014,1015,264,364,147,framenr_1015_framevid_example8,50.0
1015,1016,262,352,161,framenr_1016_framevid_example8,50.0
1016,1017,262,352,163,framenr_1017_framevid_example8,50.0
1017,1018,272,312,106,framenr_1018_framevid_example8,50.0
1018,1019,280,392,176,framenr_1019_framevid_example8,50.0
1019,1020,266,348,159,framenr_1020_framevid_example8,50.0
1020,1021,280,314,114,framenr_1021_framevid_example8,50.0
1021,1022,722,382,214,framenr_1022_framevid_example8,50.0
1022,1023,314,290,95,framenr_1023_framevid_example8,50.0
1023,1024,316,302,108,framenr_1024_framevid_example8,50.0
1024,1025,326,312,120,framenr_1025_framevid_example8,50.0
1025,1026,338,304,113,framenr_1026_framevid_example8,50.0
1026,1027,356,300,106,framenr_1027_framevid_example8,50.0
1027,1028,330,338,146,framenr_1028_framevid_example8,50.0
1028,1029,384,300,106,framenr_1029_framevid_example8,50.0
1029,1030,392,304,113,framenr_1030_framevid_example8,50.0
1030,1031,386,342,157,framenr_1031_framevid_example8,50.0
1031,1032,424,302,113,framenr_1032_framevid_example8,50.0
1032,1033,418,328,149,framenr_1033_framevid_example8,50.0
1033,1034,444,548,147,framenr_1034_framevid_example8,50.0
1034,1035,486,276,88,framenr_1035_framevid_example8,50.0
1035,1036,634,686,171,framenr_1036_framevid_example8,50.0
1036,1037,466,568,118,framenr_1037_framevid_example8,50.0
1037,1038,612,666,217,framenr_1038_framevid_example8,50.0
1038,1039,610,652,234,framenr_1039_framevid_example8,50.0
1039,1040,630,660,219,framenr_1040_framevid_example8,50.0
1040,1041,628,648,234,framenr_1041_framevid_example8,50.0
1041,1042,508,556,120,framenr_1042_framevid_example8,50.0
1042,1043,640,646,235,framenr_1043_framevid_example8,50.0
1043,1044,644,644,237,framenr_1044_framevid_example8,50.0
1044,1045,542,538,143,framenr_1045_framevid_example8,50.0
1045,1046,530,560,129,framenr_1046_framevid_example8,50.0
1046,1047,562,532,153,framenr_1047_framevid_example8,50.0
1047,1048,594,500,198,framenr_1048_framevid_example8,50.0
1048,1049,600,502,201,framenr_1049_framevid_example8,50.0
1049,1050,576,552,168,framenr_1050_framevid_example8,50.0
1050,1051,598,542,190,framenr_1051_framevid_example8,50.0
1051,1052,640,476,245,framenr_1052_framevid_example8,50.0
1052,1053,624,524,204,framenr_1053_framevid_example8,50.0
1053,1054,574,578,144,framenr_1054_framevid_example8,50.0
1054,1055,576,582,139,framenr_1055_framevid_example8,50.0
1055,1056,626,540,199,framenr_1056_framevid_example8,50.0
1056,1057,760,672,146,framenr_1057_framevid_example8,50.0
1057,1058,932,646,127,framenr_1058_framevid_example8,50.0
1058,1059,976,324,181,framenr_1059_framevid_example8,50.0
1059,1060,984,340,195,framenr_1060_framevid_example8,50.0
1060,1061,744,664,162,framenr_1061_framevid_example8,50.0
1061,1062,930,638,135,framenr_1062_framevid_example8,50.0
1062,1063,746,654,170,framenr_1063_framevid_example8,50.0
1063,1064,624,560,134,framenr_1064_framevid_example8,50.0
1064,1065,728,766,89,framenr_1065_framevid_example8,50.0
1065,1066,716,506,130,framenr_1066_framevid_example8,50.0
1066,1067,716,518,121,framenr_1067_framevid_example8,50.0
1067,1068,752,656,171,framenr_1068_framevid_example8,50.0
1068,1069,640,570,129,framenr_1069_framevid_example8,50.0
1069,1070,712,528,102,framenr_1070_framevid_example8,50.0
1070,1071,198,280,149,framenr_1071_framevid_example8,50.0
1071,1072,844,824,189,framenr_1072_framevid_example8,50.0
1072,1073,892,824,241,framenr_1073_framevid_example8,50.0
1073,1074,890,822,238,framenr_1074_framevid_example8,50.0
1074,1075,642,560,127,framenr_1075_framevid_example8,50.0
1075,1076,882,826,228,framenr_1076_framevid_example8,50.0
1076,1077,700,474,118,framenr_1077_framevid_example8,50.0
1077,1078,660,540,151,framenr_1078_framevid_example8,50.0
1078,1079,658,528,160,framenr_1079_framevid_example8,50.0
1079,1080,890,830,226,framenr_1080_framevid_example8,50.0
1080,1081,842,774,169,framenr_1081_framevid_example8,50.0
1081,1082,650,524,161,framenr_1082_framevid_example8,50.0
1082,1083,658,522,171,framenr_1083_framevid_example8,50.0
1083,1084,638,532,153,framenr_1084_framevid_example8,50.0
1084,1085,678,522,195,framenr_1085_framevid_example8,50.0
1085,1086,638,532,156,framenr_1086_framevid_example8,50.0
1086,1087,638,530,159,framenr_1087_framevid_example8,50.0
1087,1088,634,528,159,framenr_1088_framevid_example8,50.0
1088,1089,636,526,168,framenr_1089_framevid_example8,50.0
1089,1090,636,486,156,framenr_1090_framevid_example8,50.0
1090,1091,628,530,175,framenr_1091_framevid_example8,50.0
1091,1092,640,514,181,framenr_1092_framevid_example8,50.0
1092,1093,632,526,168,framenr_1093_framevid_example8,50.0
1093,1094,616,540,160,framenr_1094_framevid_example8,50.0
1094,1095,628,524,180,framenr_1095_framevid_example8,50.0
1095,1096,628,524,181,framenr_1096_framevid_example8,50.0
1096,1097,642,514,185,framenr_1097_framevid_example8,50.0
1097,1098,630,528,168,framenr_1098_framevid_example8,50.0
1098,1099,628,528,167,framenr_1099_framevid_example8,50.0
1099,1100,632,530,184,framenr_1100_framevid_example8,50.0
1100,1101,628,530,182,framenr_1101_framevid_example8,50.0
1101,1102,632,520,179,framenr_1102_framevid_example8,50.0
1102,1103,634,518,180,framenr_1103_framevid_example8,50.0
1103,1104,622,528,180,framenr_1104_framevid_example8,50.0
1104,1105,608,544,160,framenr_1105_framevid_example8,50.0
1105,1106,624,530,181,framenr_1106_framevid_example8,50.0
1106,1107,616,530,162,framenr_1107_framevid_example8,50.0
1107,1108,624,524,171,framenr_1108_framevid_example8,50.0
1108,1109,624,520,173,framenr_1109_framevid_example8,50.0
1109,1110,630,514,182,framenr_1110_framevid_example8,50.0
1110,1111,626,494,164,framenr_1111_framevid_example8,50.0
1111,1112,610,532,156,framenr_1112_framevid_example8,50.0
1112,1113,626,514,181,framenr_1113_framevid_example8,50.0
1113,1114,630,516,182,framenr_1114_framevid_example8,50.0
1114,1115,620,514,179,framenr_1115_framevid_example8,50.0
1115,1116,606,522,177,framenr_1116_framevid_example8,50.0
1116,1117,612,522,184,framenr_1117_framevid_example8,50.0
1117,1118,600,524,174,framenr_1118_framevid_example8,50.0
1118,1119,628,516,190,framenr_1119_framevid_example8,50.0
1119,1120,592,528,156,framenr_1120_framevid_example8,50.0
1120,1121,600,518,170,framenr_1121_framevid_example8,50.0
1121,1122,588,526,155,framenr_1122_framevid_example8,50.0
1122,1123,586,524,172,framenr_1123_framevid_example8,50.0
1123,1124,598,512,173,framenr_1124_framevid_example8,50.0
1124,1125,590,516,165,framenr_1125_framevid_example8,50.0
1125,1126,624,482,210,framenr_1126_framevid_example8,50.0
1126,1127,594,508,171,framenr_1127_framevid_example8,50.0
1127,1128,588,516,161,framenr_1128_framevid_example8,50.0
1128,1129,586,514,160,framenr_1129_framevid_example8,50.0
1129,1130,596,508,172,framenr_1130_framevid_example8,50.0
1130,1131,590,508,167,framenr_1131_framevid_example8,50.0
1131,1132,594,510,168,framenr_1132_framevid_example8,50.0
1132,1133,592,512,181,framenr_1133_framevid_example8,50.0
1133,1134,596,510,170,framenr_1134_framevid_example8,50.0
1134,1135,592,508,168,framenr_1135_framevid_example8,50.0
1135,1136,594,510,169,framenr_1136_framevid_example8,50.0
1136,1137,578,516,168,framenr_1137_framevid_example8,50.0
1137,1138,598,510,173,framenr_1138_framevid_example8,50.0
1138,1139,622,490,204,framenr_1139_framevid_example8,50.0
1139,1140,570,518,162,framenr_1140_framevid_example8,50.0
1140,1141,572,518,165,framenr_1141_framevid_example8,50.0
1141,1142,568,518,163,framenr_1142_framevid_example8,50.0
1142,1143,570,518,164,framenr_1143_framevid_example8,50.0
1143,1144,572,518,165,framenr_1144_framevid_example8,50.0
1144,1145,570,516,164,framenr_1145_framevid_example8,50.0
1145,1146,572,518,166,framenr_1146_framevid_example8,50.0
1146,1147,606,488,211,framenr_1147_framevid_example8,50.0
1147,1148,574,514,155,framenr_1148_framevid_example8,50.0
1148,1149,568,520,148,framenr_1149_framevid_example8,50.0
1149,1150,562,522,142,framenr_1150_framevid_example8,50.0
1150,1151,568,514,165,framenr_1151_framevid_example8,50.0
1151,1152,568,500,159,framenr_1152_framevid_example8,50.0
1152,1153,560,518,155,framenr_1153_framevid_example8,50.0
1153,1154,570,510,152,framenr_1154_framevid_example8,50.0
1154,1155,562,512,161,framenr_1155_framevid_example8,50.0
1155,1156,570,506,154,framenr_1156_framevid_example8,50.0
1156,1157,558,512,162,framenr_1157_framevid_example8,50.0
1157,1158,558,512,161,framenr_1158_framevid_example8,50.0
1158,1159,554,514,156,framenr_1159_framevid_example8,50.0
1159,1160,546,522,148,framenr_1160_framevid_example8,50.0
1160,1161,546,520,152,framenr_1161_framevid_example8,50.0
1161,1162,562,508,172,framenr_1162_framevid_example8,50.0
1162,1163,572,508,186,framenr_1163_framevid_example8,50.0
1163,1164,558,516,159,framenr_1164_framevid_example8,50.0
1164,1165,552,518,173,framenr_1165_framevid_example8,50.0
1165,1166,552,522,162,framenr_1166_framevid_example8,50.0
1166,1167,550,524,168,framenr_1167_framevid_example8,50.0
1167,1168,540,530,168,framenr_1168_framevid_example8,50.0
1168,1169,522,548,168,framenr_1169_framevid_example8,50.0
1169,1170,518,540,165,framenr_1170_framevid_example8,50.0
1170,1171,518,536,178,framenr_1171_framevid_example8,50.0
1171,1172,504,546,166,framenr_1172_framevid_example8,50.0
1172,1173,510,528,184,framenr_1173_framevid_example8,50.0
1173,1174,474,554,157,framenr_1174_framevid_example8,50.0
1174,1175,480,536,164,framenr_1175_framevid_example8,50.0
1175,1176,474,536,161,framenr_1176_framevid_example8,50.0
1176,1177,454,548,156,framenr_1177_framevid_example8,50.0
1177,1178,452,540,165,framenr_1178_framevid_example8,50.0
1178,1179,450,538,171,framenr_1179_framevid_example8,50.0
1179,1180,434,544,159,framenr_1180_framevid_example8,50.0
1180,1181,454,536,162,framenr_1181_framevid_example8,50.0
1181,1182,460,526,171,framenr_1182_framevid_example8,50.0
1182,1183,466,498,189,framenr_1183_framevid_example8,50.0
1183,1184,448,486,185,framenr_1184_framevid_example8,50.0
1184,1185,426,494,164,framenr_1185_framevid_example8,50.0
1185,1186,414,482,171,framenr_1186_framevid_example8,50.0
1186,1187,412,466,171,framenr_1187_framevid_example8,50.0
1187,1188,408,468,171,framenr_1188_framevid_example8,50.0
1188,1189,402,446,167,framenr_1189_framevid_example8,50.0
1189,1190,394,416,170,framenr_1190_framevid_example8,50.0
1190,1191,382,402,167,framenr_1191_framevid_example8,50.0
1191,1192,390,402,170,framenr_1192_framevid_example8,50.0
1192,1193,430,386,196,framenr_1193_framevid_example8,50.0
1193,1194,414,412,185,framenr_1194_framevid_example8,50.0
1194,1195,392,412,172,framenr_1195_framevid_example8,50.0
